QZS-1R                  
1 49336U 21096A   24011.61098367 -.00000267  00000+0  00000+0 0  9995
2 49336  35.6206  92.9391 0758246 271.6544  97.9116  1.00247398  8110
